{"fetched_at":"2026-07-24T07:06:11.280Z","source":"https://celestrak.org/NORAD/elements/gp.php?GROUP=qianfan&FORMAT=JSON","constellation":"qianfan","records":[{"OBJECT_NAME":"QIANFAN-113","OBJECT_ID":"2026-075E","EPOCH":"2026-07-23T19:23:47.406048","CLASSIFICATION_TYPE":"U","MEAN_MOTION":13.51020208,"ECCENTRICITY":0.0002099,"INCLINATION":88.9922,"RA_OF_ASC_NODE":317.2596,"ARG_OF_PERICENTER":108.8325,"MEAN_ANOMALY":251.3053,"EPHEMERIS_TYPE":0,"NORAD_CAT_ID":68640,"ELEMENT_SET_NO":999,"REV_AT_EPOCH":1475,"BSTAR":0.00017504,"MEAN_MOTION_DOT":0.00000125,"MEAN_MOTION_DDOT":0},{"OBJECT_NAME":"QIANFAN-114","OBJECT_ID":"2026-075F","EPOCH":"2026-07-23T19:35:35.992320","CLASSIFICATION_TYPE":"U","MEAN_MOTION":13.51018766,"ECCENTRICITY":0.0002127,"INCLINATION":88.9918,"RA_OF_ASC_NODE":317.2762,"ARG_OF_PERICENTER":105.3205,"MEAN_ANOMALY":254.8181,"EPHEMERIS_TYPE":0,"NORAD_CAT_ID":68641,"ELEMENT_SET_NO":999,"REV_AT_EPOCH":1474,"BSTAR":0.00014686,"MEAN_MOTION_DOT":0.00000107,"MEAN_MOTION_DDOT":0},{"OBJECT_NAME":"QIANFAN-115","OBJECT_ID":"2026-075G","EPOCH":"2026-07-23T18:30:20.300256","CLASSIFICATION_TYPE":"U","MEAN_MOTION":13.51015521,"ECCENTRICITY":0.0002291,"INCLINATION":88.9918,"RA_OF_ASC_NODE":317.2879,"ARG_OF_PERICENTER":106.6031,"MEAN_ANOMALY":253.5372,"EPHEMERIS_TYPE":0,"NORAD_CAT_ID":68642,"ELEMENT_SET_NO":999,"REV_AT_EPOCH":1473,"BSTAR":0.00013485,"MEAN_MOTION_DOT":9.9e-7,"MEAN_MOTION_DDOT":0},{"OBJECT_NAME":"QIANFAN-116","OBJECT_ID":"2026-075H","EPOCH":"2026-07-23T19:59:12.867648","CLASSIFICATION_TYPE":"U","MEAN_MOTION":13.5101616,"ECCENTRICITY":0.0002187,"INCLINATION":88.9911,"RA_OF_ASC_NODE":317.2391,"ARG_OF_PERICENTER":114.6829,"MEAN_ANOMALY":245.455,"EPHEMERIS_TYPE":0,"NORAD_CAT_ID":68643,"ELEMENT_SET_NO":999,"REV_AT_EPOCH":1475,"BSTAR":0.00015207,"MEAN_MOTION_DOT":0.0000011,"MEAN_MOTION_DDOT":0},{"OBJECT_NAME":"QIANFAN-117","OBJECT_ID":"2026-075J","EPOCH":"2026-07-23T19:41:26.488608","CLASSIFICATION_TYPE":"U","MEAN_MOTION":13.5101403,"ECCENTRICITY":0.0002299,"INCLINATION":88.9916,"RA_OF_ASC_NODE":317.2578,"ARG_OF_PERICENTER":110.3536,"MEAN_ANOMALY":249.7862,"EPHEMERIS_TYPE":0,"NORAD_CAT_ID":68644,"ELEMENT_SET_NO":999,"REV_AT_EPOCH":1475,"BSTAR":0.00015744,"MEAN_MOTION_DOT":0.00000114,"MEAN_MOTION_DDOT":0},{"OBJECT_NAME":"QIANFAN-118","OBJECT_ID":"2026-075K","EPOCH":"2026-07-23T13:22:14.491488","CLASSIFICATION_TYPE":"U","MEAN_MOTION":13.51015824,"ECCENTRICITY":0.0002006,"INCLINATION":88.992,"RA_OF_ASC_NODE":317.2944,"ARG_OF_PERICENTER":104.266,"MEAN_ANOMALY":255.8714,"EPHEMERIS_TYPE":0,"NORAD_CAT_ID":68645,"ELEMENT_SET_NO":999,"REV_AT_EPOCH":1471,"BSTAR":0.00016283196,"MEAN_MOTION_DOT":0.00000117,"MEAN_MOTION_DDOT":0},{"OBJECT_NAME":"QIANFAN-119","OBJECT_ID":"2026-075L","EPOCH":"2026-07-23T14:33:21.252672","CLASSIFICATION_TYPE":"U","MEAN_MOTION":13.51022091,"ECCENTRICITY":0.0002413,"INCLINATION":88.9921,"RA_OF_ASC_NODE":317.2849,"ARG_OF_PERICENTER":110.8802,"MEAN_ANOMALY":249.2608,"EPHEMERIS_TYPE":0,"NORAD_CAT_ID":68646,"ELEMENT_SET_NO":999,"REV_AT_EPOCH":1472,"BSTAR":0.00014941685,"MEAN_MOTION_DOT":0.00000109,"MEAN_MOTION_DDOT":0},{"OBJECT_NAME":"QIANFAN-120","OBJECT_ID":"2026-075M","EPOCH":"2026-07-23T13:04:38.246304","CLASSIFICATION_TYPE":"U","MEAN_MOTION":13.51022629,"ECCENTRICITY":0.00025553,"INCLINATION":88.9922,"RA_OF_ASC_NODE":317.2768,"ARG_OF_PERICENTER":109.9114,"MEAN_ANOMALY":250.2313,"EPHEMERIS_TYPE":0,"NORAD_CAT_ID":68647,"ELEMENT_SET_NO":999,"REV_AT_EPOCH":1472,"BSTAR":0.00013932382,"MEAN_MOTION_DOT":0.00000102,"MEAN_MOTION_DDOT":0},{"OBJECT_NAME":"QIANFAN-121","OBJECT_ID":"2026-075N","EPOCH":"2026-07-23T13:40:04.426752","CLASSIFICATION_TYPE":"U","MEAN_MOTION":13.51014664,"ECCENTRICITY":0.00020727,"INCLINATION":88.992,"RA_OF_ASC_NODE":317.2785,"ARG_OF_PERICENTER":103.8065,"MEAN_ANOMALY":256.3317,"EPHEMERIS_TYPE":0,"NORAD_CAT_ID":68648,"ELEMENT_SET_NO":999,"REV_AT_EPOCH":1472,"BSTAR":0.00016470831,"MEAN_MOTION_DOT":0.00000118,"MEAN_MOTION_DDOT":0},{"OBJECT_NAME":"QIANFAN-122","OBJECT_ID":"2026-075P","EPOCH":"2026-07-23T13:28:21.895392","CLASSIFICATION_TYPE":"U","MEAN_MOTION":13.51018275,"ECCENTRICITY":0.00023423,"INCLINATION":88.9918,"RA_OF_ASC_NODE":317.2771,"ARG_OF_PERICENTER":111.9914,"MEAN_ANOMALY":248.1486,"EPHEMERIS_TYPE":0,"NORAD_CAT_ID":68649,"ELEMENT_SET_NO":999,"REV_AT_EPOCH":1471,"BSTAR":0.00016037113,"MEAN_MOTION_DOT":0.00000116,"MEAN_MOTION_DDOT":0},{"OBJECT_NAME":"QIANFAN-123","OBJECT_ID":"2026-075Q","EPOCH":"2026-07-23T14:27:41.298048","CLASSIFICATION_TYPE":"U","MEAN_MOTION":13.51016708,"ECCENTRICITY":0.00025165,"INCLINATION":88.9915,"RA_OF_ASC_NODE":317.2617,"ARG_OF_PERICENTER":115.0593,"MEAN_ANOMALY":245.082,"EPHEMERIS_TYPE":0,"NORAD_CAT_ID":68650,"ELEMENT_SET_NO":999,"REV_AT_EPOCH":1470,"BSTAR":0.00016823326,"MEAN_MOTION_DOT":0.00000121,"MEAN_MOTION_DDOT":0},{"OBJECT_NAME":"QIANFAN-124","OBJECT_ID":"2026-075R","EPOCH":"2026-07-23T13:16:31.601856","CLASSIFICATION_TYPE":"U","MEAN_MOTION":13.510179,"ECCENTRICITY":0.00023779,"INCLINATION":88.9918,"RA_OF_ASC_NODE":317.2767,"ARG_OF_PERICENTER":113.5903,"MEAN_ANOMALY":246.5498,"EPHEMERIS_TYPE":0,"NORAD_CAT_ID":68651,"ELEMENT_SET_NO":999,"REV_AT_EPOCH":1472,"BSTAR":0.00014743469,"MEAN_MOTION_DOT":0.00000107,"MEAN_MOTION_DDOT":0},{"OBJECT_NAME":"QIANFAN-125","OBJECT_ID":"2026-075S","EPOCH":"2026-07-23T13:34:09.417792","CLASSIFICATION_TYPE":"U","MEAN_MOTION":13.51014846,"ECCENTRICITY":0.00020623,"INCLINATION":88.9918,"RA_OF_ASC_NODE":317.2775,"ARG_OF_PERICENTER":104.4037,"MEAN_ANOMALY":255.7344,"EPHEMERIS_TYPE":0,"NORAD_CAT_ID":68652,"ELEMENT_SET_NO":999,"REV_AT_EPOCH":1472,"BSTAR":0.00016153162,"MEAN_MOTION_DOT":0.00000116,"MEAN_MOTION_DDOT":0},{"OBJECT_NAME":"QIANFAN-126","OBJECT_ID":"2026-075T","EPOCH":"2026-07-23T13:46:04.400256","CLASSIFICATION_TYPE":"U","MEAN_MOTION":13.5102001,"ECCENTRICITY":0.00025175,"INCLINATION":88.9922,"RA_OF_ASC_NODE":317.2437,"ARG_OF_PERICENTER":114.6705,"MEAN_ANOMALY":245.4709,"EPHEMERIS_TYPE":0,"NORAD_CAT_ID":68653,"ELEMENT_SET_NO":999,"REV_AT_EPOCH":1474,"BSTAR":0.00016702435,"MEAN_MOTION_DOT":0.0000012,"MEAN_MOTION_DDOT":0},{"OBJECT_NAME":"QIANFAN-127","OBJECT_ID":"2026-104A","EPOCH":"2026-07-23T12:06:34.904160","CLASSIFICATION_TYPE":"U","MEAN_MOTION":13.49713171,"ECCENTRICITY":0.000908,"INCLINATION":88.9927,"RA_OF_ASC_NODE":337.7556,"ARG_OF_PERICENTER":341.3755,"MEAN_ANOMALY":18.7062,"EPHEMERIS_TYPE":0,"NORAD_CAT_ID":69073,"ELEMENT_SET_NO":999,"REV_AT_EPOCH":1006,"BSTAR":-3.5191,"MEAN_MOTION_DOT":-0.02084181,"MEAN_MOTION_DDOT":0},{"OBJECT_NAME":"QIANFAN-128","OBJECT_ID":"2026-104B","EPOCH":"2026-07-23T19:25:26.005728","CLASSIFICATION_TYPE":"U","MEAN_MOTION":13.510101,"ECCENTRICITY":0.0001938,"INCLINATION":88.9904,"RA_OF_ASC_NODE":337.7607,"ARG_OF_PERICENTER":90.454,"MEAN_ANOMALY":269.6833,"EPHEMERIS_TYPE":0,"NORAD_CAT_ID":69074,"ELEMENT_SET_NO":999,"REV_AT_EPOCH":1008,"BSTAR":0.000090979,"MEAN_MOTION_DOT":7.1e-7,"MEAN_MOTION_DDOT":0}]}
