QIANFAN-113             
1 68640U 26075E   26204.80818757  .00000125  00000+0  17504-3 0  9999
2 68640  88.9922 317.2596 0002099 108.8325 251.3053 13.51020208 14752
QIANFAN-114             
1 68641U 26075F   26204.81638880  .00000107  00000+0  14686-3 0  9996
2 68641  88.9918 317.2762 0002127 105.3205 254.8181 13.51018766 14749
QIANFAN-115             
1 68642U 26075G   26204.77106829  .00000099  00000+0  13485-3 0  9991
2 68642  88.9918 317.2879 0002291 106.6031 253.5372 13.51015521 14735
QIANFAN-116             
1 68643U 26075H   26204.83278782  .00000110  00000+0  15207-3 0  9995
2 68643  88.9911 317.2391 0002187 114.6829 245.4550 13.51016160 14756
QIANFAN-117             
1 68644U 26075J   26204.82044547  .00000114  00000+0  15744-3 0  9995
2 68644  88.9916 317.2578 0002299 110.3536 249.7862 13.51014030 14758
QIANFAN-118             
1 68645U 26075K   26204.55711217  .00000117  00000+0  16283-3 0  9993
2 68645  88.9920 317.2944 0002006 104.2660 255.8714 13.51015824 14719
QIANFAN-119             
1 68646U 26075L   26204.60649598  .00000109  00000+0  14942-3 0  9993
2 68646  88.9921 317.2849 0002413 110.8802 249.2608 13.51022091 14722
QIANFAN-120             
1 68647U 26075M   26204.54488711  .00000102  00000+0  13932-3 0  9996
2 68647  88.9922 317.2768 0002555 109.9114 250.2313 13.51022629 14728
QIANFAN-121             
1 68648U 26075N   26204.56949568  .00000118  00000+0  16471-3 0  9999
2 68648  88.9920 317.2785 0002072 103.8065 256.3317 13.51014664 14729
QIANFAN-122             
1 68649U 26075P   26204.56136453  .00000116  00000+0  16037-3 0  9997
2 68649  88.9918 317.2771 0002342 111.9914 248.1486 13.51018275 14712
QIANFAN-123             
1 68650U 26075Q   26204.60256132  .00000121  00000+0  16823-3 0  9990
2 68650  88.9915 317.2617 0002516 115.0593 245.0820 13.51016708 14707
QIANFAN-124             
1 68651U 26075R   26204.55314354  .00000107  00000+0  14743-3 0  9999
2 68651  88.9918 317.2767 0002377 113.5903 246.5498 13.51017900 14724
QIANFAN-125             
1 68652U 26075S   26204.56538678  .00000116  00000+0  16153-3 0  9995
2 68652  88.9918 317.2775 0002062 104.4037 255.7344 13.51014846 14720
QIANFAN-126             
1 68653U 26075T   26204.57366204  .00000120  00000+0  16702-3 0  9996
2 68653  88.9922 317.2437 0002517 114.6705 245.4709 13.51020010 14744
QIANFAN-127             
1 69073U 26104A   26204.50457065 -.02084181  00000+0 -35191+1 0  9998
2 69073  88.9927 337.7556 0009080 341.3755  18.7062 13.49713171 10069
QIANFAN-128             
1 69074U 26104B   26204.80932877  .00000071  00000+0  90979-4 0  9992
2 69074  88.9904 337.7607 0001938  90.4540 269.6833 13.51010100 10080
